satname,norad_id,inclination_deg,eccentricity,mean_motion_rev_per_day,perigee_km,apogee_km,l1,l2
STARLINK-1152,45096,53.0439,0.0005264,15.28372756,477.0658461672101,484.2868048362998,1 45096U 20006BE  25350.10208720  .00011629  00000+0  42715-3 0  9997,2 45096  53.0439 237.6751 0005264  55.1608 304.9885 15.28372756324768
STARLINK-1184,45098,53.0544,0.0001945,15.06765155,544.7458738122896,547.4393991408788,1 45098U 20006BG  25350.18284345  .00014680  00000+0  99257-3 0  9997,2 45098  53.0544 261.4891 0001945 109.9982 250.1217 15.06765155324432
STARLINK-1193,45100,53.0551,0.0001484,15.06403927,546.1718023351095,548.2272422149217,1 45100U 20006BJ  25350.17973028  .00002430  00000+0  18193-3 0  9993,2 45100  53.0551 261.5098 0001484  92.2747 267.8412 15.06403927324433
STARLINK-1143,45179,53.0532,0.0001557,15.46868717,424.83335815944974,426.9521330222269,1 45179U 20012B   25350.29196831  .00091620  00000+0  17810-2 0  9991,2 45179  53.0532  12.6415 0001557 191.0802 169.0171 15.46868717322953
STARLINK-1202,45183,53.0561,0.0001173,15.06392714,546.4215425636776,548.0462345741371,1 45183U 20012F   25349.44623530 -.00000318  00000+0 -24357-5 0  9995,2 45183  53.0561  64.8046 0001173  93.7265 266.3858 15.06392714322143
STARLINK-1216,45185,53.0552,0.0001274,15.06388142,546.3656072023996,548.1301952752356,1 45185U 20012H   25350.23502361  .00002779  00000+0  20544-3 0  9997,2 45185  53.0552  61.2606 0001274  93.4313 266.6822 15.06388142322202
STARLINK-1225,45187,53.055,0.0001276,15.06401998,546.3217606681856,548.0891080574347,1 45187U 20012K   25349.92172188  .00005885  00000+0  41362-3 0  9995,2 45187  53.0550  62.6670 0001276  88.6277 271.4858 15.06401998322203
STARLINK-1230,45189,53.0558,0.0001166,15.06396447,546.4149504813895,548.0299443045205,1 45189U 20012M   25349.92540227 -.00002391  00000+0 -14172-3 0  9990,2 45189  53.0558  62.6547 0001166  92.8503 267.2620 15.06396447319436
STARLINK-1234,45190,53.0509,0.0008159,15.43720506,429.58125561916495,440.69916136798474,1 45190U 20012N   25350.30535371  .00088157  00000+0  19073-2 0  9996,2 45190  53.0509   7.1774 0008159   9.6312 350.4848 15.43720506322926
STARLINK-1269,45197,53.0552,0.0001204,15.06388458,546.4131165062909,548.0807489572926,1 45197U 20012V   25350.20185076  .00003071  00000+0  22501-3 0  9998,2 45197  53.0552  61.4103 0001204  82.2167 277.8958 15.06388458322221
STARLINK-1154,45198,53.0564,0.000151,15.0639313,546.186882767186,548.2783443904864,1 45198U 20012W   25350.32533599  .00004929  00000+0  34962-3 0  9996,2 45198  53.0564  40.8565 0001510  78.2207 281.8952 15.06393130322499
STARLINK-1199,45201,53.0557,0.0001216,15.06387746,546.4069879863946,548.0912418895468,1 45201U 20012Z   25350.33638167  .00001653  00000+0  12986-3 0  9992,2 45201  53.0557  40.8073 0001216  89.6076 270.5052 15.06387746322552
STARLINK-1209,45206,53.0525,0.000851,15.36853154,449.60629159668497,461.2370084189979,1 45206U 20012AE  25350.35861669  .00070640  00000+0  19232-2 0  9996,2 45206  53.0525   9.6153 0008510  12.0978 348.0227 15.36853154322042
STARLINK-1210,45207,53.0209,0.0003056,15.68882917,360.03477031353304,364.15439985833655,1 45207U 20012AF  25350.33337963  .00184222  00000+0  15433-2 0  9991,2 45207  53.0209 322.1643 0003056 146.2582  45.2148 15.68882917  5905
STARLINK-1231,45212,53.0507,0.0002492,15.15307206,518.3270392568566,521.7650936971895,1 45212U 20012AL  25350.32492461  .00019504  00000+0  10366-2 0  9991,2 45212  53.0507  36.8077 0002492 170.2003 189.9039 15.15307206322564
STARLINK-1271,45217,53.0576,0.0001461,15.06391982,546.2243350478784,548.247929077068,1 45217U 20012AR  25350.32163709  .00000110  00000+0  26291-4 0  9995,2 45217  53.0576  40.8746 0001461  97.2127 262.9029 15.06391982322557
STARLINK-1191,45222,53.0562,0.0001245,15.06394441,546.3663875083867,548.0908035416724,1 45222U 20012AW  25350.33085243 -.00000494  00000+0 -14267-4 0  9995,2 45222  53.0562  20.8304 0001245  93.9170 266.1962 15.06394441322833
STARLINK-1212,45223,53.0566,0.0001326,15.06395482,546.3071019372728,548.143708047076,1 45223U 20012AX  25350.34936992  .00003244  00000+0  23662-3 0  9995,2 45223  53.0566  21.4041 0001326  90.2543 269.8598 15.06395482322838
STARLINK-1215,45225,53.0549,0.0001302,15.06400021,546.3098132024388,548.1131739501661,1 45225U 20012AZ  25350.30504473  .00000451  00000+0  49183-4 0  9992,2 45225  53.0549  20.9465 0001302  86.0873 274.0265 15.06400021322787
STARLINK-1221,45227,53.0685,0.0005623,15.3867776,446.17883003200495,453.85777348436204,1 45227U 20012BB  25350.27165897  .00012864  00000+0  34121-3 0  9999,2 45227  53.0685 303.8983 0005623  97.6834 262.4808 15.38677760323857
STARLINK-1222,45228,53.0573,0.0002113,15.27272113,482.5212118962427,485.4211388111462,1 45228U 20012BC  25350.33337963  .01618326  00000+0  54209-1 0  9995,2 45228  53.0573  19.7345 0002113 103.6348  71.4550 15.27272113  5791
STARLINK-1226,45229,53.0561,0.000145,15.06394781,546.223375607532,548.2317313280382,1 45229U 20012BD  25350.30137851  .00007769  00000+0  53994-3 0  9991,2 45229  53.0561  20.9632 0001450  93.4040 266.7115 15.06394781322724
STARLINK-1227,45230,53.0558,0.0001221,15.06398493,546.3705910572062,548.061762302952,1 45230U 20012BE  25350.36403129  .00004457  00000+0  31790-3 0  9994,2 45230  53.0558  20.6814 0001221  90.7734 269.3395 15.06398493322854
STARLINK-1246,45235,53.0552,0.000146,15.06421755,546.1337916441025,548.1559739538789,1 45235U 20012BK  25350.17972827  .00007112  00000+0  49556-3 0  9994,2 45235  53.0552  61.5084 0001460  88.5074 271.6083 15.06421755322277
STARLINK-1270,45237,53.0543,0.0002132,15.11677643,529.6103745002438,532.5564660874561,1 45237U 20012BM  25350.33337963  .00059450  00000+0  34422-2 0  9997,2 45237  53.0543  20.7874 0002132  59.4737  52.1310 15.11677643  5798
STARLINK-1279,45360,53.0486,0.0006157,15.41703384,436.8831891022983,445.2803751105839,1 45360U 20019A   25350.33337963  .00146113  00000+0  33524-2 0  9996,2 45360  53.0486 138.0858 0006157 177.8972 172.6146 15.41703384  5782
STARLINK-1301,45361,53.0478,0.0006616,15.44786865,427.4988096097668,436.50998870913463,1 45361U 20019B   25350.33337963  .00164121  00000+0  33852-2 0  9990,2 45361  53.0478 146.9282 0006616 173.0787 107.0745 15.44786865  5892
STARLINK-1306,45362,53.0359,0.0001528,15.9017067,300.7841582682322,302.8255484986257,1 45362U 20019C   25350.33337963  .00355537  00000+0  11058-2 0  9998,2 45362  53.0359 124.2675 0001528  26.2797 217.1726 15.90170670  5842
STARLINK-1262,45366,53.0535,0.0001407,15.06395381,546.2513160102562,548.2001130781291,1 45366U 20019G   25349.96225474  .00000076  00000+0  23983-4 0  9999,2 45366  53.0535 182.4820 0001407  93.8617 266.2533 15.06395381317119
STARLINK-1273,45367,53.0539,0.0001404,15.0639088,546.2671867038334,548.2118324277199,1 45367U 20019H   25349.98438350 -.00000417  00000+0 -90775-5 0  9996,2 45367  53.0539 182.3834 0001404  93.4767 266.6383 15.06390880317113
STARLINK-1276,45368,53.054,0.000131,15.06387635,546.3422295159944,548.1566807672416,1 45368U 20019J   25349.95487773  .00001134  00000+0  95033-4 0  9993,2 45368  53.0540 182.5197 0001310  91.1643 268.9496 15.06387635317118
STARLINK-1277,45369,53.0529,0.000148,15.06395742,546.1996546077507,548.2495616437564,1 45369U 20019K   25350.27932033 -.00000060  00000+0  14860-4 0  9992,2 45369  53.0529 181.6868 0001480  96.3879 263.7279 15.06395742317151
STARLINK-1281,45370,53.0539,0.0001387,15.06396771,546.260907158271,548.1820015935155,1 45370U 20019L   25350.27555595 -.00000439  00000+0 -10547-4 0  9997,2 45370  53.0539 181.0809 0001387  93.1184 266.9964 15.06396771317163
STARLINK-1300,45374,53.0536,0.0001641,15.06398036,546.0811266358114,548.354028008087,1 45374U 20019Q   25349.83325129  .00000879  00000+0  77909-4 0  9990,2 45374  53.0536 183.0628 0001641  95.3900 264.7276 15.06398036317098
STARLINK-1302,45375,53.0536,0.0001513,15.06397083,546.1726915481113,548.2683047270466,1 45375U 20019R   25349.98068393  .00000834  00000+0  74893-4 0  9994,2 45375  53.0536 182.4019 0001513  93.4224 266.6938 15.06397083317112
STARLINK-1304,45376,53.054,0.0001331,15.06399291,546.29196673973,548.1354951043022,1 45376U 20019S   25349.86642642  .00002366  00000+0  17769-3 0  9997,2 45376  53.0540 182.9127 0001331  93.0196 267.0946 15.06399291317099
STARLINK-1305,45377,53.0506,0.0009122,15.37689492,446.71229876527013,459.17492223106274,1 45377U 20019T   25349.89027170  .00051913  00000+0  13815-2 0  9993,2 45377  53.0506 171.5418 0009122 147.4942 212.6624 15.37689492317265
STARLINK-1319,45379,53.0519,0.0007568,15.42750137,432.83843185246224,443.15533209621935,1 45379U 20019V   25349.90148796  .00071322  00000+0  15998-2 0  9995,2 45379  53.0519 172.3782 0007568 153.6940 206.4450 15.42750137317251
STARLINK-1266,45383,53.0534,0.0001369,15.06397526,546.2710591467121,548.1672216579545,1 45383U 20019Z   25350.21842279  .00000085  00000+0  24577-4 0  9996,2 45383  53.0534 161.3372 0001369  88.1949 271.9197 15.06397526317423
STARLINK-1267,45384,53.0526,8.71e-05,15.1339301,525.260222403881,526.4628989531511,1 45384U 20019AA  25350.33337963  .00122453  00000+0  66829-2 0  9997,2 45384  53.0526 161.3494 0000871  55.3176 355.6104 15.13393010  5698
STARLINK-1272,45386,53.0501,0.0007478,15.41107998,437.7372852047274,447.938735430158,1 45386U 20019AC  25350.00245659  .00090365  00000+0  21332-2 0  9999,2 45386  53.0501 150.2472 0007478 171.8493 188.2634 15.41107998317561
STARLINK-1274,45387,53.0318,0.000221,15.34828079,459.91965036755664,462.94273950972,1 45387U 20019AD  25350.33337963  .00117788  00000+0  33961-2 0  9996,2 45387  53.0318 137.8081 0002210 113.1049 279.5339 15.34828079  5810
STARLINK-1280,45388,53.051,0.0009761,15.4637527,420.69728238841253,433.9829347998093,1 45388U 20019AE  25350.22335626  .00017187  00000+0  34963-3 0  9995,2 45388  53.0510 166.7404 0009761 143.8870 216.2798 15.46375270317349
